NORAD_CAT_ID,OBJECT_NAME,OBJECT_TYPE,EPOCH,MEAN_MOTION,ECCENTRICITY,INCLINATION,RA_OF_ASC_NODE,ARG_OF_PERICENTER,MEAN_ANOMALY,BSTAR,MEAN_MOTION_DOT,MEAN_MOTION_DDOT,TLE_LINE0,TLE_LINE1,TLE_LINE2,SEMIMAJOR_AXIS,PERIOD,APOGEE,PERIGEE,DECAYED
52280.0,STARLINK-3764,PAYLOAD,2023-05-04 08:33:12,15.08842516,0.0001269,53.2166,99.3534,84.812,275.3017,5.1241e-05,5.28e-06,0.0,0 STARLINK-3764,1 52280U 22041V   23124.35639754  .00000528  00000-0  51241-4 0  9992,2 52280  53.2166  99.3534 0001269  84.8120 275.3017 15.08842516 58532,6917.873,95.437,540.616,538.86,0.0
52280.0,STARLINK-3764,PAYLOAD,2023-05-05 21:07:05,15.08832803,0.0001228,53.2165,92.5147,92.438,267.6752,1.6807e-05,-2e-07,0.0,0 STARLINK-3764,1 52280U 22041V   23125.87992766 -.00000020  00000-0  16807-4 0  9992,2 52280  53.2165  92.5147 0001228  92.4380 267.6752 15.08832803 58767,6917.902,95.438,540.617,538.918,0.0
52280.0,STARLINK-3764,PAYLOAD,2023-05-06 06:39:24,15.08837597,0.0001209,53.2168,90.7303,93.5982,266.5148,-8.4549e-07,-3.01e-06,0.0,0 STARLINK-3764,1 52280U 22041V   23126.27736725 -.00000301  00000-0 -84549-6 0  9991,2 52280  53.2168  90.7303 0001209  93.5982 266.5148 15.08837597 57607,6917.888,95.438,540.589,538.916,0.0
52280.0,STARLINK-3764,PAYLOAD,2023-05-07 01:44:01,15.08847376,0.0001197,53.2172,87.162,95.6341,264.4788,8.9821e-05,1.142e-05,0.0,0 STARLINK-3764,1 52280U 22041V   23127.07223872  .00001142  00000-0  89821-4 0  9992,2 52280  53.2172  87.1620 0001197  95.6341 264.4788 15.08847376 58943,6917.858,95.437,540.551,538.895,0.0
52280.0,STARLINK-3764,PAYLOAD,2023-05-07 06:30:10,15.08851114,0.0001224,53.2171,86.2697,93.7175,266.3957,0.00011783,1.588e-05,0.0,0 STARLINK-3764,1 52280U 22041V   23127.27095519  .00001588  00000-0  11783-3 0  9994,2 52280  53.2171  86.2697 0001224  93.7175 266.3957 15.08851114 57753,6917.846,95.437,540.558,538.865,0.0
52280.0,STARLINK-3764,PAYLOAD,2023-05-08 03:10:12,15.08833439,0.0001248,53.2172,82.403,99.9355,260.1778,5.2158e-05,5.42e-06,0.0,0 STARLINK-3764,1 52280U 22041V   23128.13209083  .00000542  00000-0  52158-4 0  9994,2 52280  53.2172  82.4030 0001248  99.9355 260.1778 15.08833439 59101,6917.9,95.438,540.629,538.902,0.0
52280.0,STARLINK-3764,PAYLOAD,2023-05-08 19:04:03,15.08846634,0.0001183,53.2175,79.4302,100.2091,259.9035,1.4462e-05,-5.8e-07,0.0,0 STARLINK-3764,1 52280U 22041V   23128.79448490 -.00000058  00000-0  14462-4 0  9992,2 52280  53.2175  79.4302 0001183 100.2091 259.9035 15.08846634 59207,6917.86,95.437,540.543,538.907,0.0
52280.0,STARLINK-3764,PAYLOAD,2023-05-09 03:00:58,15.08852835,0.0001232,53.2172,77.9428,104.3553,255.7576,6.7965e-05,7.94e-06,0.0,0 STARLINK-3764,1 52280U 22041V   23129.12567796  .00000794  00000-0  67965-4 0  9993,2 52280  53.2172  77.9428 0001232 104.3553 255.7576 15.08852835 58033,6917.841,95.437,540.558,538.854,0.0
52280.0,STARLINK-3764,PAYLOAD,2023-05-10 02:51:46,15.08838881,0.0001157,53.2172,73.4852,91.7268,268.3857,9.678e-05,1.253e-05,0.0,0 STARLINK-3764,1 52280U 22041V   23130.11928751  .00001253  00000-0  96780-4 0  9994,2 52280  53.2172  73.4852 0001157  91.7268 268.3857 15.08838881 58186,6917.884,95.438,540.549,538.948,0.0
52280.0,STARLINK-3764,PAYLOAD,2023-05-11 02:42:32,15.08858021,0.0001354,53.2172,69.0213,102.9497,257.1647,0.00013113,1.801e-05,0.0,0 STARLINK-3764,1 52280U 22041V   23131.11287358  .00001801  00000-0  13113-3 0  9993,2 52280  53.2172  69.0213 0001354 102.9497 257.1647 15.08858021 59559,6917.825,95.436,540.627,538.754,0.0
52280.0,STARLINK-3764,PAYLOAD,2023-05-12 02:33:21,15.08832331,0.0001142,53.218,64.5637,89.1945,270.9178,-3.862e-06,-3.49e-06,0.0,0 STARLINK-3764,1 52280U 22041V   23132.10649675 -.00000349  00000-0 -38620-5 0  9997,2 52280  53.2180  64.5637 0001142  89.1945 270.9178 15.08832331 59702,6917.904,95.438,540.559,538.979,0.0
52280.0,STARLINK-3764,PAYLOAD,2023-05-13 02:24:06,15.08857035,9.96e-05,53.2182,60.1044,95.6018,264.5088,0.00010599,1.4e-05,0.0,0 STARLINK-3764,1 52280U 22041V   23133.10008002  .00001400  00000-0  10599-3 0  9991,2 52280  53.2182  60.1044 0000996  95.6018 264.5088 15.08857035 59850,6917.828,95.436,540.382,539.004,0.0
52280.0,STARLINK-3764,PAYLOAD,2023-05-14 02:14:55,15.08833146,0.0001275,53.2191,55.6417,75.3447,284.7687,6.5921e-05,7.61e-06,0.0,0 STARLINK-3764,1 52280U 22041V   23134.09370126  .00000761  00000-0  65921-4 0  9998,2 52280  53.2191  55.6417 0001275  75.3447 284.7687 15.08833146 60000,6917.901,95.438,540.648,538.884,0.0
52280.0,STARLINK-3764,PAYLOAD,2023-05-14 22:54:55,15.08840478,0.0001673,53.2172,51.7812,132.7492,227.3641,0.00016352,2.315e-05,0.0,0 STARLINK-3764,1 52280U 22041V   23134.95481074  .00002315  00000-0  16352-3 0  9998,2 52280  53.2172  51.7812 0001673 132.7492 227.3641 15.08840478 60138,6917.879,95.438,540.901,538.587,0.0
52280.0,STARLINK-3764,PAYLOAD,2023-05-15 03:41:04,15.08863145,0.0001411,53.2185,50.8855,110.5858,249.5286,9.6658e-05,1.252e-05,0.0,0 STARLINK-3764,1 52280U 22041V   23135.15352020  .00001252  00000-0  96658-4 0  9996,2 52280  53.2185  50.8855 0001411 110.5858 249.5286 15.08863145 60169,6917.81,95.436,540.651,538.699,0.0
52280.0,STARLINK-3764,PAYLOAD,2023-05-15 11:38:01,15.08837914,0.0001421,53.2163,49.4028,80.5787,279.5366,9.1465e-05,1.168e-05,0.0,0 STARLINK-3764,1 52280U 22041V   23135.48473655  .00001168  00000-0  91465-4 0  9997,2 52280  53.2163  49.4028 0001421  80.5787 279.5366 15.08837914 60212,6917.887,95.438,540.735,538.769,0.0
52280.0,STARLINK-3764,PAYLOAD,2023-05-16 00:21:06,15.08835835,0.0001462,53.2183,47.018,85.5771,274.5388,3.0558e-05,1.98e-06,0.0,0 STARLINK-3764,1 52280U 22041V   23136.01465866  .00000198  00000-0  30558-4 0  9990,2 52280  53.2183  47.0180 0001462  85.5771 274.5388 15.08835835 59071,6917.893,95.438,540.77,538.747,0.0
52280.0,STARLINK-3764,PAYLOAD,2023-05-16 21:01:06,15.08844722,0.0001542,53.2189,43.1499,93.8644,266.2525,2.8375e-05,1.64e-06,0.0,0 STARLINK-3764,1 52280U 22041V   23136.87577433  .00000164  00000-0  28375-4 0  9995,2 52280  53.2189  43.1499 0001542  93.8644 266.2525 15.08844722 59208,6917.866,95.437,540.798,538.664,0.0
52280.0,STARLINK-3764,PAYLOAD,2023-05-16 22:36:29,15.08847573,0.0001271,53.218,42.855,86.2283,273.8855,2.5532e-05,1.19e-06,0.0,0 STARLINK-3764,1 52280U 22041V   23136.94201244  .00000119  00000-0  25532-4 0  9999,2 52280  53.2180  42.8550 0001271  86.2283 273.8855 15.08847573 60431,6917.857,95.437,540.602,538.843,0.0
52280.0,STARLINK-3764,PAYLOAD,2023-05-17 20:51:54,15.08835675,0.0001388,53.219,38.6857,97.8116,262.3034,7.5409e-05,9.12e-06,0.0,0 STARLINK-3764,1 52280U 22041V   23137.86937915  .00000912  00000-0  75409-4 0  9991,2 52280  53.2190  38.6857 0001388  97.8116 262.3034 15.08835675 59358,6917.894,95.438,540.719,538.798,0.0
52280.0,STARLINK-3764,PAYLOAD,2023-05-18 00:02:40,15.08836036,0.0001218,53.2177,38.0974,76.4319,283.6808,0.00010949,1.455e-05,0.0,0 STARLINK-3764,1 52280U 22041V   23138.00186059  .00001455  00000-0  10949-3 0  9993,2 52280  53.2177  38.0974 0001218  76.4319 283.6808 15.08836036 60592,6917.893,95.438,540.6,538.915,0.0
52280.0,STARLINK-3764,PAYLOAD,2023-05-18 17:31:55,15.088401,0.0001234,53.218,34.8281,75.0347,285.0781,8.5232e-05,1.069e-05,0.0,0 STARLINK-3764,1 52280U 22041V   23138.73049962  .00001069  00000-0  85232-4 0  9993,2 52280  53.2180  34.8281 0001234  75.0347 285.0781 15.08840100 59484,6917.88,95.438,540.599,538.891,0.0
52280.0,STARLINK-3764,PAYLOAD,2023-05-18 23:53:27,15.08846268,0.0001294,53.2178,33.6383,76.3335,283.7801,0.00011269,1.506e-05,0.0,0 STARLINK-3764,1 52280U 22041V   23138.99545652  .00001506  00000-0  11269-3 0  9992,2 52280  53.2178  33.6383 0001294  76.3335 283.7801 15.08846268 60748,6917.861,95.437,540.621,538.831,0.0
52280.0,STARLINK-3764,PAYLOAD,2023-05-19 15:47:19,15.0883959,0.0001314,53.2178,30.6657,75.1421,284.9716,0.00014716,2.055e-05,0.0,0 STARLINK-3764,1 52280U 22041V   23139.65786052  .00002055  00000-0  14716-3 0  9997,2 52280  53.2178  30.6657 0001314  75.1421 284.9716 15.08839590 60844,6917.882,95.438,540.656,538.838,0.0
52280.0,STARLINK-3764,PAYLOAD,2023-05-19 20:33:28,15.08836396,0.0001255,53.2182,29.7736,75.3932,284.7199,0.00025429,3.761e-05,0.0,0 STARLINK-3764,1 52280U 22041V   23139.85658206  .00003761  00000-0  25429-3 0  9996,2 52280  53.2182  29.7736 0001255  75.3932 284.7199 15.08836396 59650,6917.891,95.438,540.625,538.888,0.0
52280.0,STARLINK-3764,PAYLOAD,2023-05-20 17:13:27,15.08883036,9.68e-05,53.2179,25.9089,66.0904,294.0189,-0.00091029,-0.00014763,0.0,0 STARLINK-3764,1 52280U 22041V   23140.71767459 -.00014763  00000-0 -91029-3 0  9999,2 52280  53.2179  25.9089 0000968  66.0904 294.0189 15.08883036 61009,6917.749,95.435,540.283,538.944,0.0
52280.0,STARLINK-3764,PAYLOAD,2023-05-20 20:24:14,15.08854058,0.0001294,53.2171,25.3153,96.9162,263.1977,0.00020797,3.025e-05,0.0,0 STARLINK-3764,1 52280U 22041V   23140.85017001  .00003025  00000-0  20797-3 0  9996,2 52280  53.2171  25.3153 0001294  96.9162 263.1977 15.08854058 59807,6917.837,95.437,540.598,538.807,0.0
52280.0,STARLINK-3764,PAYLOAD,2023-05-21 01:10:23,15.08864153,0.0001182,53.2169,24.4232,97.9912,262.1214,0.00043006,6.568e-05,0.0,0 STARLINK-3764,1 52280U 22041V   23141.04888520  .00006568  00000-0  43006-3 0  9993,2 52280  53.2169  24.4232 0001182  97.9912 262.1214 15.08864153 61052,6917.807,95.436,540.489,538.854,0.0
52280.0,STARLINK-3764,PAYLOAD,2023-05-21 18:39:39,15.088249,0.0001525,53.2169,21.1521,78.3569,281.7594,-0.00020709,-3.581e-05,0.0,0 STARLINK-3764,1 52280U 22041V   23141.77754521 -.00003581  00000-0 -20709-3 0  9995,2 52280  53.2169  21.1521 0001525  78.3569 281.7594 15.08824900 59948,6917.927,95.439,540.847,538.737,0.0
52280.0,STARLINK-3764,PAYLOAD,2023-05-21 23:25:49,15.08822771,0.000116,53.2167,20.2605,109.2051,250.9067,-0.00018278,-3.194e-05,0.0,0 STARLINK-3764,1 52280U 22041V   23141.97626466 -.00003194  00000-0 -18278-3 0  9991,2 52280  53.2167  20.2605 0001160 109.2051 250.9067 15.08822771 61191,6917.933,95.439,540.601,538.996,0.0
